[{"OBJECT_NAME":"STARLINK-3113","OBJECT_ID":"2021-115M","EPOCH":"2026-03-09T12:12:22.797216","MEAN_MOTION":15.08842889,"ECCENTRICITY":0.00012226,"INCLINATION":53.2161,"RA_OF_ASC_NODE":159.8171,"ARG_OF_PERICENTER":105.186,"MEAN_ANOMALY":254.9268,"EPHEMERIS_TYPE":0,"CLASSIFICATION_TYPE":"U","NORAD_CAT_ID":49735,"ELEMENT_SET_NO":999,"REV_AT_EPOCH":23536,"BSTAR":-3.4922094e-5,"MEAN_MOTION_DOT":-8.44e-6,"MEAN_MOTION_DDOT":0},{"OBJECT_NAME":"PSLV R\/B","OBJECT_ID":"2010-035F","EPOCH":"2026-03-09T21:32:02.806944","MEAN_MOTION":15.11637156,"ECCENTRICITY":0.00120112,"INCLINATION":97.9796,"RA_OF_ASC_NODE":355.2302,"ARG_OF_PERICENTER":197.9598,"MEAN_ANOMALY":162.1208,"EPHEMERIS_TYPE":0,"CLASSIFICATION_TYPE":"U","NORAD_CAT_ID":36800,"ELEMENT_SET_NO":999,"REV_AT_EPOCH":85407,"BSTAR":0.00037264097,"MEAN_MOTION_DOT":6.275e-5,"MEAN_MOTION_DDOT":0}]
